[{"OBJECT_NAME":"SOAP","OBJECT_ID":"2025-052BF","EPOCH":"2026-03-10T00:02:28.605408","MEAN_MOTION":14.96239557,"ECCENTRICITY":0.00016838,"INCLINATION":97.698,"RA_OF_ASC_NODE":323.0105,"ARG_OF_PERICENTER":5.2797,"MEAN_ANOMALY":354.8442,"EPHEMERIS_TYPE":0,"CLASSIFICATION_TYPE":"U","NORAD_CAT_ID":63263,"ELEMENT_SET_NO":999,"REV_AT_EPOCH":5385,"BSTAR":0.00031886977,"MEAN_MOTION_DOT":3.541e-5,"MEAN_MOTION_DDOT":0},{"OBJECT_NAME":"CZ-2C DEB","OBJECT_ID":"2026-009D","EPOCH":"2026-03-09T18:06:55.672992","MEAN_MOTION":15.16841441,"ECCENTRICITY":0.00999045,"INCLINATION":97.6656,"RA_OF_ASC_NODE":143.8643,"ARG_OF_PERICENTER":42.8877,"MEAN_ANOMALY":318.0091,"EPHEMERIS_TYPE":0,"CLASSIFICATION_TYPE":"U","NORAD_CAT_ID":67587,"ELEMENT_SET_NO":999,"REV_AT_EPOCH":810,"BSTAR":0.0023439167,"MEAN_MOTION_DOT":0.00052682,"MEAN_MOTION_DDOT":0}]
